[{"OBJECT_NAME":"GEOSCAN 5 (RS92S5)","OBJECT_ID":"2025-155R","EPOCH":"2026-03-09T22:01:07.273920","MEAN_MOTION":15.30265233,"ECCENTRICITY":0.00070849,"INCLINATION":97.4462,"RA_OF_ASC_NODE":37.7456,"ARG_OF_PERICENTER":154.5846,"MEAN_ANOMALY":205.5745,"EPHEMERIS_TYPE":0,"CLASSIFICATION_TYPE":"U","NORAD_CAT_ID":64891,"ELEMENT_SET_NO":999,"REV_AT_EPOCH":6562,"BSTAR":0.00068639307,"MEAN_MOTION_DOT":0.00020065,"MEAN_MOTION_DDOT":0},{"OBJECT_NAME":"STARLINK-35942","OBJECT_ID":"2025-286B","EPOCH":"2026-03-09T03:14:49.163136","MEAN_MOTION":15.30183767,"ECCENTRICITY":0.00015205,"INCLINATION":53.1621,"RA_OF_ASC_NODE":0.903,"ARG_OF_PERICENTER":51.6518,"MEAN_ANOMALY":308.462,"EPHEMERIS_TYPE":0,"CLASSIFICATION_TYPE":"U","NORAD_CAT_ID":66926,"ELEMENT_SET_NO":999,"REV_AT_EPOCH":1533,"BSTAR":0.0006344393,"MEAN_MOTION_DOT":0.00018468,"MEAN_MOTION_DDOT":0}]
